{"fetched_at":"2026-03-29T16:36:15Z","count":15609,"tles":[{"name":"STARLINK-31201","line1":"1 58870U 24019T   26087.82519096 -.00001280  00000+0 -36987-4 0  9996","line2":"2 58870  43.0008 140.4511 0001243 271.9735  88.0974 15.27582503121991","category":"Starlink"}]}