{
  "norad_id": 58870,
  "name": "STARLINK-31201",
  "history": [
    {
      "epoch": "2026-03-28T19:48:16.498944",
      "apogee_km": 483.8948573382795,
      "perigee_km": 482.18834499659624,
      "latitude_deg": -33.70525124129456,
      "longitude_deg": 146.21833216003142,
      "semi_major_axis_km": 6861.178601167438,
      "eccentricity": 0.00012436,
      "inclination_deg": 43.0008,
      "raan_deg": 140.4511,
      "arg_perigee_deg": 271.9735,
      "mean_anomaly_deg": 88.0974,
      "mean_motion_rev_day": 15.27582503
    }
  ]
}